{
  "links" : {
    "next" : "https://api.nasa.gov/neo/rest/v1/feed?start_date=2014-03-23&end_date=2014-03-23&detailed=true&api_key=t0TVs3DtDT2H8Oy2Zy8m2eVrNsAVKAexjcZXUckd",
    "prev" : "https://api.nasa.gov/neo/rest/v1/feed?start_date=2014-03-21&end_date=2014-03-21&detailed=true&api_key=t0TVs3DtDT2H8Oy2Zy8m2eVrNsAVKAexjcZXUckd",
    "self" : "https://api.nasa.gov/neo/rest/v1/feed?start_date=2014-03-22&end_date=2014-03-22&detailed=true&api_key=t0TVs3DtDT2H8Oy2Zy8m2eVrNsAVKAexjcZXUckd"
  },
  "element_count" : 9,
  "near_earth_objects" : {
    "2014-03-22" : [ {
      "links" : {
        "self" : "https://api.nasa.gov/neo/rest/v1/neo/3772399?api_key=t0TVs3DtDT2H8Oy2Zy8m2eVrNsAVKAexjcZXUckd"
      },
      "neo_reference_id" : "3772399",
      "name" : "(2017 FB65)",
      "nasa_jpl_url" : "http://ssd.jpl.nasa.gov/sbdb.cgi?sstr=3772399",
      "absolute_magnitude_h" : 25.413,
      "estimated_diameter" : {
        "kilometers" : {
          "estimated_diameter_min" : 0.0219763203,
          "estimated_diameter_max" : 0.0491405461
        },
        "meters" : {
          "estimated_diameter_min" : 21.9763203204,
          "estimated_diameter_max" : 49.1405461316
        },
        "miles" : {
          "estimated_diameter_min" : 0.0136554481,
          "estimated_diameter_max" : 0.0305345103
        },
        "feet" : {
          "estimated_diameter_min" : 72.1007907598,
          "estimated_diameter_max" : 161.2222693705
        }
      },
      "is_potentially_hazardous_asteroid" : false,
      "close_approach_data" : [ {
        "close_approach_date" : "2014-03-22",
        "epoch_date_close_approach" : 1395471600000,
        "relative_velocity" : {
          "kilometers_per_second" : "13.8131544663",
          "kilometers_per_hour" : "49727.3560786645",
          "miles_per_hour" : "30898.6452256569"
        },
        "miss_distance" : {
          "astronomical" : "0.0931898203",
          "lunar" : "36.2508392334",
          "kilometers" : "13940999",
          "miles" : "8662535"
        },
        "orbiting_body" : "Earth"
      } ],
      "orbital_data" : {
        "orbit_id" : "4",
        "orbit_determination_date" : "2017-04-06 08:19:11",
        "orbit_uncertainty" : "8",
        "minimum_orbit_intersection" : ".0567558",
        "jupiter_tisserand_invariant" : "4.844",
        "epoch_osculation" : "2457836.5",
        "eccentricity" : ".2176716884594661",
        "semi_major_axis" : "1.313743195734024",
        "inclination" : "25.7935607753629",
        "ascending_node_longitude" : "4.531678020955574",
        "orbital_period" : "550.0018450894762",
        "perihelion_distance" : "1.027778496116464",
        "perihelion_argument" : "148.7977188611508",
        "aphelion_distance" : "1.599707895351584",
        "perihelion_time" : "2457807.359387214895",
        "mean_anomaly" : "19.07379165415554",
        "mean_motion" : ".6545432587438573",
        "equinox" : "J2000"
      }
    }, {
      "links" : {
        "self" : "https://api.nasa.gov/neo/rest/v1/neo/3556965?api_key=t0TVs3DtDT2H8Oy2Zy8m2eVrNsAVKAexjcZXUckd"
      },
      "neo_reference_id" : "3556965",
      "name" : "(2011 CQ4)",
      "nasa_jpl_url" : "http://ssd.jpl.nasa.gov/sbdb.cgi?sstr=3556965",
      "absolute_magnitude_h" : 18.4,
      "estimated_diameter" : {
        "kilometers" : {
          "estimated_diameter_min" : 0.5553349116,
          "estimated_diameter_max" : 1.2417666126
        },
        "meters" : {
          "estimated_diameter_min" : 555.334911581,
          "estimated_diameter_max" : 1241.766612574
        },
        "miles" : {
          "estimated_diameter_min" : 0.3450690093,
          "estimated_diameter_max" : 0.7715977618
        },
        "feet" : {
          "estimated_diameter_min" : 1821.9649913114,
          "estimated_diameter_max" : 4074.0375731972
        }
      },
      "is_potentially_hazardous_asteroid" : false,
      "close_approach_data" : [ {
        "close_approach_date" : "2014-03-22",
        "epoch_date_close_approach" : 1395471600000,
        "relative_velocity" : {
          "kilometers_per_second" : "10.9538118339",
          "kilometers_per_hour" : "39433.722602058",
          "miles_per_hour" : "24502.5816912621"
        },
        "miss_distance" : {
          "astronomical" : "0.4074949854",
          "lunar" : "158.5155487061",
          "kilometers" : "60960384",
          "miles" : "37879028"
        },
        "orbiting_body" : "Earth"
      } ],
      "orbital_data" : {
        "orbit_id" : "58",
        "orbit_determination_date" : "2017-06-24 06:18:41",
        "orbit_uncertainty" : "0",
        "minimum_orbit_intersection" : ".167138",
        "jupiter_tisserand_invariant" : "3.522",
        "epoch_osculation" : "2458000.5",
        "eccentricity" : ".5828399768933537",
        "semi_major_axis" : "2.001895582573166",
        "inclination" : "23.74996212798733",
        "ascending_node_longitude" : "86.08572645569134",
        "orbital_period" : "1034.571615036709",
        "perihelion_distance" : ".8351108074833152",
        "perihelion_argument" : "86.42599134491846",
        "aphelion_distance" : "3.168680357663017",
        "perihelion_time" : "2457766.430945274616",
        "mean_anomaly" : "81.44903501740519",
        "mean_motion" : ".3479701112689299",
        "equinox" : "J2000"
      }
    }, {
      "links" : {
        "self" : "https://api.nasa.gov/neo/rest/v1/neo/3601574?api_key=t0TVs3DtDT2H8Oy2Zy8m2eVrNsAVKAexjcZXUckd"
      },
      "neo_reference_id" : "3601574",
      "name" : "(2012 FK15)",
      "nasa_jpl_url" : "http://ssd.jpl.nasa.gov/sbdb.cgi?sstr=3601574",
      "absolute_magnitude_h" : 26.5,
      "estimated_diameter" : {
        "kilometers" : {
          "estimated_diameter_min" : 0.0133215567,
          "estimated_diameter_max" : 0.0297879063
        },
        "meters" : {
          "estimated_diameter_min" : 13.3215566698,
          "estimated_diameter_max" : 29.7879062798
        },
        "miles" : {
          "estimated_diameter_min" : 0.008277629,
          "estimated_diameter_max" : 0.0185093411
        },
        "feet" : {
          "estimated_diameter_min" : 43.7058959846,
          "estimated_diameter_max" : 97.7293544391
        }
      },
      "is_potentially_hazardous_asteroid" : false,
      "close_approach_data" : [ {
        "close_approach_date" : "2014-03-22",
        "epoch_date_close_approach" : 1395471600000,
        "relative_velocity" : {
          "kilometers_per_second" : "13.7490765695",
          "kilometers_per_hour" : "49496.6756501694",
          "miles_per_hour" : "30755.3093782955"
        },
        "miss_distance" : {
          "astronomical" : "0.1595425687",
          "lunar" : "62.0620613098",
          "kilometers" : "23867230",
          "miles" : "14830409"
        },
        "orbiting_body" : "Earth"
      } ],
      "orbital_data" : {
        "orbit_id" : "4",
        "orbit_determination_date" : "2017-04-06 08:50:25",
        "orbit_uncertainty" : "8",
        "minimum_orbit_intersection" : ".0487075",
        "jupiter_tisserand_invariant" : "6.043",
        "epoch_osculation" : "2456009.5",
        "eccentricity" : ".06650745782869934",
        "semi_major_axis" : ".9911526984909586",
        "inclination" : "24.34128958115243",
        "ascending_node_longitude" : ".5942981672984921",
        "orbital_period" : "360.4203287229523",
        "perihelion_distance" : ".9252336521942696",
        "perihelion_argument" : "327.3579234806223",
        "aphelion_distance" : "1.057071744787647",
        "perihelion_time" : "2456150.985493658813",
        "mean_anomaly" : "218.6795092894852",
        "mean_motion" : ".9988337818667398",
        "equinox" : "J2000"
      }
    } ]
  }
}